start=new Date('2022-11-05T00:00:00.000Z').valueOf();
sats=[{"TLE_LINE1":"1 48310U 21036AL  22308.91033097  .00002819  00000-0  20809-3 0  9997","OBJECT_ID":"2021-036AL","INCLINATION":"53.0531","RCS_SIZE":"LARGE","FILE":"3645105","GP_ID":"216935877","EPOCH":"2022-11-04T21:50:52.595808","MEAN_ELEMENT_THEORY":"SGP4","COUNTRY_CODE":"US","RA_OF_ASC_NODE":"171.9221","CENTER_NAME":"EARTH","SEMIMAJOR_AXIS":"6925.349","REV_AT_EPOCH":"8417","MEAN_MOTION_DDOT":"0.0000000000000","ARG_OF_PERICENTER":"71.7044","MEAN_MOTION":"15.06399779","NORAD_CAT_ID":"48310","DECAY_DATE":null,"MEAN_ANOMALY":"288.4101","OBJECT_TYPE":"PAYLOAD","CLASSIFICATION_TYPE":"U","TIME_SYSTEM":"UTC","ELEMENT_SET_NO":"999","TLE_LINE2":"2 48310  53.0531 171.9221 0001443  71.7044 288.4101 15.06399779 84173","MEAN_MOTION_DOT":"0.00002819","APOAPSIS":"548.214","SITE":"AFETR","BSTAR":"0.00020809000000","PERIOD":"95.592","ECCENTRICITY":"0.00014430","REF_FRAME":"TEME","LAUNCH_DATE":"2021-04-29","OBJECT_NAME":"STARLINK-2536","PERIAPSIS":"546.215","EPHEMERIS_TYPE":"0"},{"EPOCH":"2022-11-04T21:45:35.049024","COUNTRY_CODE":"US","MEAN_ELEMENT_THEORY":"SGP4","RA_OF_ASC_NODE":"171.9240","CENTER_NAME":"EARTH","SEMIMAJOR_AXIS":"6925.449","REV_AT_EPOCH":"8417","MEAN_MOTION_DDOT":"0.0000000000000","TLE_LINE1":"1 48311U 21036AM  22308.90665566  .00006118  00000-0  42960-3 0  9997","OBJECT_ID":"2021-036AM","INCLINATION":"53.0543","FILE":"3645105","RCS_SIZE":"LARGE","GP_ID":"216934636","SITE":"AFETR","APOAPSIS":"548.378","BSTAR":"0.00042960000000","PERIOD":"95.594","REF_FRAME":"TEME","ECCENTRICITY":"0.00015360","LAUNCH_DATE":"2021-04-29","OBJECT_NAME":"STARLINK-2534","PERIAPSIS":"546.250","EPHEMERIS_TYPE":"0","ARG_OF_PERICENTER":"102.3902","NORAD_CAT_ID":"48311","MEAN_MOTION":"15.06367252","DECAY_DATE":null,"MEAN_ANOMALY":"257.7259","OBJECT_TYPE":"PAYLOAD","TIME_SYSTEM":"UTC","CLASSIFICATION_TYPE":"U","TLE_LINE2":"2 48311  53.0543 171.9240 0001536 102.3902 257.7259 15.06367252 84179","ELEMENT_SET_NO":"999","MEAN_MOTION_DOT":"0.00006118"},{"EPHEMERIS_TYPE":"0","PERIAPSIS":"546.240","LAUNCH_DATE":"2021-04-29","OBJECT_NAME":"STARLINK-2061","SITE":"AFETR","BSTAR":"0.00002468100000","APOAPSIS":"548.186","REF_FRAME":"TEME","ECCENTRICITY":"0.00014050","PERIOD":"95.592","ELEMENT_SET_NO":"999","TLE_LINE2":"2 48312  53.0532 171.9538 0001405  62.4797 297.6335 15.06400040 84172","CLASSIFICATION_TYPE":"U","TIME_SYSTEM":"UTC","MEAN_MOTION_DOT":"0.00000086","OBJECT_TYPE":"PAYLOAD","DECAY_DATE":null,"MEAN_ANOMALY":"297.6335","ARG_OF_PERICENTER":"62.4797","NORAD_CAT_ID":"48312","MEAN_MOTION":"15.06400040","MEAN_MOTION_DDOT":"0.0000000000000","REV_AT_EPOCH":"8417","SEMIMAJOR_AXIS":"6925.348","MEAN_ELEMENT_THEORY":"SGP4","COUNTRY_CODE":"US","EPOCH":"2022-11-04T21:40:15.311136","RA_OF_ASC_NODE":"171.9538","CENTER_NAME":"EARTH","GP_ID":"216935387","INCLINATION":"53.0532","FILE":"3645105","RCS_SIZE":"LARGE","OBJECT_ID":"2021-036AN","TLE_LINE1":"1 48312U 21036AN  22308.90295499  .00000086  00000-0  24681-4 0  9991"},{"TLE_LINE1":"1 48313U 21036AP  22308.89927820  .00005020  00000-0  35563-3 0  9993","OBJECT_ID":"2021-036AP","FILE":"3645105","RCS_SIZE":"LARGE","INCLINATION":"53.0545","GP_ID":"216935638","RA_OF_ASC_NODE":"171.9679","CENTER_NAME":"EARTH","EPOCH":"2022-11-04T21:34:57.636480","COUNTRY_CODE":"US","MEAN_ELEMENT_THEORY":"SGP4","SEMIMAJOR_AXIS":"6925.332","REV_AT_EPOCH":"8416","MEAN_MOTION_DDOT":"0.0000000000000","NORAD_CAT_ID":"48313","MEAN_MOTION":"15.06405409","ARG_OF_PERICENTER":"88.0822","MEAN_ANOMALY":"272.0376","DECAY_DATE":null,"OBJECT_TYPE":"PAYLOAD","MEAN_MOTION_DOT":"0.00005020","TIME_SYSTEM":"UTC","CLASSIFICATION_TYPE":"U","ELEMENT_SET_NO":"999","TLE_LINE2":"2 48313  53.0545 171.9679 0001829  88.0822 272.0376 15.06405409 84161","PERIOD":"95.592","ECCENTRICITY":"0.00018290","REF_FRAME":"TEME","BSTAR":"0.00035563000000","SITE":"AFETR","APOAPSIS":"548.464","OBJECT_NAME":"STARLINK-2541","LAUNCH_DATE":"2021-04-29","PERIAPSIS":"545.930","EPHEMERIS_TYPE":"0"},{"GP_ID":"216936378","FILE":"3645105","RCS_SIZE":"LARGE","INCLINATION":"53.0525","OBJECT_ID":"2021-036AQ","TLE_LINE1":"1 48314U 21036AQ  22308.89559021  .00003549  00000-0  25699-3 0  9991","REV_AT_EPOCH":"8416","MEAN_MOTION_DDOT":"0.0000000000000","SEMIMAJOR_AXIS":"6925.323","RA_OF_ASC_NODE":"171.9875","CENTER_NAME":"EARTH","EPOCH":"2022-11-04T21:29:38.994144","MEAN_ELEMENT_THEORY":"SGP4","COUNTRY_CODE":"US","MEAN_MOTION_DOT":"0.00003549","TIME_SYSTEM":"UTC","CLASSIFICATION_TYPE":"U","ELEMENT_SET_NO":"999","TLE_LINE2":"2 48314  53.0525 171.9875 0001386  83.9419 276.1728 15.06408464 84162","OBJECT_TYPE":"PAYLOAD","MEAN_ANOMALY":"276.1728","DECAY_DATE":null,"MEAN_MOTION":"15.06408464","NORAD_CAT_ID":"48314","ARG_OF_PERICENTER":"83.9419","EPHEMERIS_TYPE":"0","PERIAPSIS":"546.228","OBJECT_NAME":"STARLINK-2549","LAUNCH_DATE":"2021-04-29","PERIOD":"95.592","ECCENTRICITY":"0.00013860","REF_FRAME":"TEME","SITE":"AFETR","APOAPSIS":"548.147","BSTAR":"0.00025699000000"},{"PERIAPSIS":"546.186","EPHEMERIS_TYPE":"0","SITE":"AFETR","APOAPSIS":"548.216","BSTAR":"0.00024081000000","ECCENTRICITY":"0.00014650","REF_FRAME":"TEME","PERIOD":"95.592","LAUNCH_DATE":"2021-04-29","OBJECT_NAME":"STARLINK-2506","OBJECT_TYPE":"PAYLOAD","TLE_LINE2":"2 48315  53.0521 171.9813 0001465  86.3219 273.7938 15.06404113 84167","ELEMENT_SET_NO":"999","TIME_SYSTEM":"UTC","CLASSIFICATION_TYPE":"U","MEAN_MOTION_DOT":"0.00003308","ARG_OF_PERICENTER":"86.3219","NORAD_CAT_ID":"48315","MEAN_MOTION":"15.06404113","DECAY_DATE":null,"MEAN_ANOMALY":"273.7938","SEMIMAJOR_AXIS":"6925.336","MEAN_MOTION_DDOT":"0.0000000000000","REV_AT_EPOCH":"8416","COUNTRY_CODE":"US","MEAN_ELEMENT_THEORY":"SGP4","EPOCH":"2022-11-04T21:22:57.975456","RA_OF_ASC_NODE":"171.9813","CENTER_NAME":"EARTH","INCLINATION":"53.0521","RCS_SIZE":"LARGE","FILE":"3645105","GP_ID":"216935137","TLE_LINE1":"1 48315U 21036AR  22308.89094879  .00003308  00000-0  24081-3 0  9994","OBJECT_ID":"2021-036AR"},{"MEAN_ELEMENT_THEORY":"SGP4","COUNTRY_CODE":"US","EPOCH":"2022-11-04T21:19:01.640352","CENTER_NAME":"EARTH","RA_OF_ASC_NODE":"172.0040","MEAN_MOTION_DDOT":"0.0000000000000","REV_AT_EPOCH":"8416","SEMIMAJOR_AXIS":"6925.357","OBJECT_ID":"2021-036AS","TLE_LINE1":"1 48316U 21036AS  22308.88821343  .00001669  00000-0  13095-3 0  9999","GP_ID":"216934887","INCLINATION":"53.0531","FILE":"3645105","RCS_SIZE":"LARGE","LAUNCH_DATE":"2021-04-29","OBJECT_NAME":"STARLINK-2507","SITE":"AFETR","BSTAR":"0.00013095000000","APOAPSIS":"548.387","ECCENTRICITY":"0.00016830","REF_FRAME":"TEME","PERIOD":"95.592","EPHEMERIS_TYPE":"0","PERIAPSIS":"546.056","DECAY_DATE":null,"MEAN_ANOMALY":"268.8462","ARG_OF_PERICENTER":"91.2720","MEAN_MOTION":"15.06397328","NORAD_CAT_ID":"48316","TLE_LINE2":"2 48316  53.0531 172.0040 0001683  91.2720 268.8462 15.06397328 84163","ELEMENT_SET_NO":"999","TIME_SYSTEM":"UTC","CLASSIFICATION_TYPE":"U","MEAN_MOTION_DOT":"0.00001669","OBJECT_TYPE":"PAYLOAD"},{"APOAPSIS":"548.175","SITE":"AFETR","BSTAR":"0.00006267500000","REF_FRAME":"TEME","ECCENTRICITY":"0.00013270","PERIOD":"95.593","LAUNCH_DATE":"2021-04-29","OBJECT_NAME":"STARLINK-2513","PERIAPSIS":"546.337","EPHEMERIS_TYPE":"0","ARG_OF_PERICENTER":"96.0918","NORAD_CAT_ID":"48317","MEAN_MOTION":"15.06386023","DECAY_DATE":null,"MEAN_ANOMALY":"264.0222","OBJECT_TYPE":"PAYLOAD","ELEMENT_SET_NO":"999","TLE_LINE2":"2 48317  53.0545 172.3174 0001327  96.0918 264.0222 15.06386023 84169","TIME_SYSTEM":"UTC","CLASSIFICATION_TYPE":"U","MEAN_MOTION_DOT":"0.00000652","COUNTRY_CODE":"US","MEAN_ELEMENT_THEORY":"SGP4","EPOCH":"2022-11-04T19:38:11.422464","CENTER_NAME":"EARTH","RA_OF_ASC_NODE":"172.3174","SEMIMAJOR_AXIS":"6925.391","MEAN_MOTION_DDOT":"0.0000000000000","REV_AT_EPOCH":"8416","TLE_LINE1":"1 48317U 21036AT  22308.81818776  .00000652  00000-0  62675-4 0  9999","OBJECT_ID":"2021-036AT","INCLINATION":"53.0545","RCS_SIZE":"LARGE","FILE":"3645105","GP_ID":"216936139"},{"REV_AT_EPOCH":"8454","MEAN_MOTION_DDOT":"0.0000000000000","SEMIMAJOR_AXIS":"6925.315","EPOCH":"2022-11-04T01:55:17.692896","COUNTRY_CODE":"US","MEAN_ELEMENT_THEORY":"SGP4","RA_OF_ASC_NODE":"185.6509","CENTER_NAME":"EARTH","GP_ID":"216909791","INCLINATION":"53.0533","RCS_SIZE":"LARGE","FILE":"3644900","OBJECT_ID":"2021-036AU","TLE_LINE1":"1 48318U 21036AU  22308.08006589  .00004525  00000-0  32240-3 0  9997","EPHEMERIS_TYPE":"0","PERIAPSIS":"546.068","LAUNCH_DATE":"2021-04-29","OBJECT_NAME":"STARLINK-2509","BSTAR":"0.00032240000000","SITE":"AFETR","APOAPSIS":"548.291","PERIOD":"95.591","ECCENTRICITY":"0.00016050","REF_FRAME":"TEME","CLASSIFICATION_TYPE":"U","TIME_SYSTEM":"UTC","TLE_LINE2":"2 48318  53.0533 185.6509 0001605  54.8899 305.2240 15.06410966 84549","ELEMENT_SET_NO":"999","MEAN_MOTION_DOT":"0.00004525","OBJECT_TYPE":"PAYLOAD","DECAY_DATE":null,"MEAN_ANOMALY":"305.2240","ARG_OF_PERICENTER":"54.8899","MEAN_MOTION":"15.06410966","NORAD_CAT_ID":"48318"},{"GP_ID":"216934637","INCLINATION":"53.0538","RCS_SIZE":"LARGE","FILE":"3645105","OBJECT_ID":"2021-036AV","TLE_LINE1":"1 48319U 21036AV  22308.80524965  .00002639  00000-0  19596-3 0  9994","REV_AT_EPOCH":"8401","MEAN_MOTION_DDOT":"0.0000000000000","SEMIMAJOR_AXIS":"6925.330","EPOCH":"2022-11-04T19:19:33.569760","COUNTRY_CODE":"US","MEAN_ELEMENT_THEORY":"SGP4","RA_OF_ASC_NODE":"182.3842","CENTER_NAME":"EARTH","CLASSIFICATION_TYPE":"U","TIME_SYSTEM":"UTC","ELEMENT_SET_NO":"999","TLE_LINE2":"2 48319  53.0538 182.3842 0001416  84.1611 275.9539 15.06406195 84012","MEAN_MOTION_DOT":"0.00002639","OBJECT_TYPE":"PAYLOAD","DECAY_DATE":null,"MEAN_ANOMALY":"275.9539","ARG_OF_PERICENTER":"84.1611","NORAD_CAT_ID":"48319","MEAN_MOTION":"15.06406195","EPHEMERIS_TYPE":"0","PERIAPSIS":"546.214","LAUNCH_DATE":"2021-04-29","OBJECT_NAME":"STARLINK-2512","SITE":"AFETR","APOAPSIS":"548.175","BSTAR":"0.00019596000000","PERIOD":"95.592","ECCENTRICITY":"0.00014160","REF_FRAME":"TEME"}];
